[{"OBJECT_NAME":"NORSAT 3","OBJECT_ID":"2021-034E","EPOCH":"2026-03-09T22:23:32.431200","MEAN_MOTION":15.04338407,"ECCENTRICITY":0.0005858,"INCLINATION":97.5427,"RA_OF_ASC_NODE":128.5959,"ARG_OF_PERICENTER":280.8366,"MEAN_ANOMALY":79.2201,"EPHEMERIS_TYPE":0,"CLASSIFICATION_TYPE":"U","NORAD_CAT_ID":48272,"ELEMENT_SET_NO":999,"REV_AT_EPOCH":26491,"BSTAR":0.00030361478,"MEAN_MOTION_DOT":4.174e-5,"MEAN_MOTION_DDOT":0},{"OBJECT_NAME":"STARLINK-34794","OBJECT_ID":"2025-165Q","EPOCH":"2026-03-09T19:13:11.286912","MEAN_MOTION":15.05626104,"ECCENTRICITY":6.586e-5,"INCLINATION":97.6016,"RA_OF_ASC_NODE":147.2836,"ARG_OF_PERICENTER":163.6731,"MEAN_ANOMALY":196.4517,"EPHEMERIS_TYPE":0,"CLASSIFICATION_TYPE":"U","NORAD_CAT_ID":65070,"ELEMENT_SET_NO":999,"REV_AT_EPOCH":3480,"BSTAR":8.9258012e-5,"MEAN_MOTION_DOT":1.227e-5,"MEAN_MOTION_DDOT":0}]
